GLOBALSTAR M035         
1 25851U 99037A   24198.91945144 -.00000113  00000+0 -18534-2 0  9999
2 25851  51.9959  82.6389 0013206 155.8875 287.2216 11.04531046 59218
GLOBALSTAR M032         
1 25852U 99037B   24198.56421952 -.00000058  00000+0  28864-3 0  9992
2 25852  51.9962 291.7892 0009612 320.8820  39.1284 11.19059638 97214
GLOBALSTAR M051         
1 25853U 99037C   24199.14282568 -.00000098  00000+0 -63906-3 0  9997
2 25853  51.9786 129.1395 0001766 347.6828  12.3939 11.42199524 94120
GLOBALSTAR M030         
1 25854U 99037D   24198.76110273 -.00000046  00000+0  61531-3 0  9992
2 25854  51.9902 317.4981 0004191 160.3776 199.7203 11.55098324111282
GLOBALSTAR M048         
1 25872U 99041A   24198.96049972 -.00000057  00000+0  34990-3 0  9997
2 25872  51.9383  51.6529 0013260 328.0105 171.5677 11.33847362 86954
GLOBALSTAR M026         
1 25873U 99041B   24198.48768483  .00000011  00000+0  27820-2 0  9992
2 25873  51.9966 205.0929 0001225  36.6728 123.7593 11.06834134111310
GLOBALSTAR M043         
1 25874U 99041C   24198.88086694 -.00000020  00000+0  14324-2 0  9990
2 25874  51.9384 146.1211 0012387  96.6321 328.6157 11.25680947 85112
GLOBALSTAR M028         
1 25875U 99041D   24199.18822336 -.00000090  00000+0  69236-4 0  9997
2 25875  51.9621 111.9555 0064021  63.7924 296.9501 12.50559279148295
